STARLINK-36927          
1 67941U 26037K   26064.66667824 -.01536704  67152-3 -41981-2 0  9995
2 67941  42.9994 223.2906 0001440 278.9477  69.6645 15.93252835  2554
STARLINK-36914          
1 67942U 26037L   26064.66667824 -.01546178  67566-3 -43429-2 0  9990
2 67942  42.9995 223.3166 0001277 272.6920  65.7865 15.92727212  2553
STARLINK-36851          
1 67943U 26037M   26064.66667824 -.01533965  66670-3 -42797-2 0  9993
2 67943  42.9995 223.3104 0001476 279.6750  61.3180 15.92852942  2556
STARLINK-36892          
1 67944U 26037N   26064.66667824 -.01508858  64836-3 -41545-2 0  9999
2 67944  42.9994 223.2977 0001378 278.7931  67.2410 15.93100217  2558
STARLINK-36908          
1 67945U 26037P   26064.66667824 -.01532502  66888-3 -41618-2 0  9993
2 67945  42.9994 223.2824 0001530 281.1873  70.7061 15.93364632  2557
STARLINK-36909          
1 67946U 26037Q   26064.66667824 -.01521787  66118-3 -41034-2 0  9995
2 67946  42.9994 223.2775 0001493 282.5252  71.4468 15.93497541  2552
STARLINK-36920          
1 67947U 26037R   26064.66667824 -.01530504  66901-3 -40993-2 0  9996
2 67947  42.9997 223.2697 0001284 278.3233  78.6150 15.93625956  2559
STARLINK-36873          
1 67948U 26037S   26064.66667824 -.01535695  67408-3 -40838-2 0  9994
2 67948  42.9996 223.2637 0001526 282.3499  77.0070 15.93761352  2556
STARLINK-36863          
1 67949U 26037T   26064.66667824 -.01537237  67613-3 -40619-2 0  9994
2 67949  42.9998 223.2562 0001460 278.4757  83.8877 15.93881620  2557
STARLINK-36887          
1 67950U 26037U   26064.66667824 -.01554326  69093-3 -40786-2 0  9993
2 67950  42.9996 223.2481 0001448 274.8577  90.6035 15.94014756  2554
STARLINK-36897          
1 67951U 26037V   26064.66667824 -.01532845  67421-3 -39983-2 0  9996
2 67951  42.9998 223.2416 0001393 281.1085  87.0461 15.94123797  2558
STARLINK-36381          
1 67952U 26037W   26064.66667824 -.01538001  68017-3 -39555-2 0  9994
2 67952  42.9999 223.2292 0001707 277.6152  95.4062 15.94387839  2555
STARLINK-36824          
1 67953U 26037X   26064.66667824 -.01528968  67194-3 -39607-2 0  9999
2 67953  42.9999 223.2353 0001503 281.3322  89.2659 15.94252582  2558
STARLINK-36869          
1 67954U 26037Y   26064.66667824 -.01522453  66839-3 -38899-2 0  9990
2 67954  42.9998 223.2236 0001505 282.5840  92.5263 15.94508887  2558
STARLINK-36872          
1 67955U 26037Z   26064.66667824 -.01519454  66761-3 -38314-2 0  9994
2 67955  42.9997 223.2096 0001491 282.4869  98.0635 15.94753757  2558
STARLINK-36918          
1 67956U 26037AA  26064.66667824 -.01519796  66871-3 -38070-2 0  9995
2 67956  42.9998 223.2025 0001550 281.1258 102.2865 15.94876824  2550
